[ {"name": "STARLINK-4133", "line1": "1 53253U 22086M   26142.55626556 -.00000287  00000+0  79384-7 0  9996", "line2": "2 53253  53.2174 222.5218 0001088  79.6136 280.4979 15.08835640212210"}, {"name": "STARLINK-4134", "line1": "1 53254U 22086N   26142.23336497  .00002401  00000+0  16882-3 0  9993", "line2": "2 53254  53.2185 223.9809 0001219  94.1681 265.9451 15.08859040212186"}, {"name": "STARLINK-4142", "line1": "1 53255U 22086P   26142.61514701  .00000232  00000+0  32676-4 0  9992", "line2": "2 53255  53.2167 222.2566 0001049  83.8200 276.2911 15.08839363212229"}, {"name": "STARLINK-4147", "line1": "1 53256U 22086Q   26142.61882639  .00000254  00000+0  34013-4 0  9992", "line2": "2 53256  53.2161 222.2419 0001184  92.4974 267.6154 15.08838591212220"}, {"name": "STARLINK-4144", "line1": "1 53257U 22086R   26142.60410823 -.00001567  00000+0 -80376-4 0  9997", "line2": "2 53257  53.2180 222.3087 0001259  77.1453 282.9679 15.08847277212222"}, {"name": "STARLINK-4127", "line1": "1 53258U 22086S   26142.47898647  .00000065  00000+0  22159-4 0  9992", "line2": "2 53258  53.2177 222.8671 0001133  83.8440 276.2682 15.08837439212201"}, {"name": "STARLINK-4140", "line1": "1 53259U 22086T   26142.63350457 -.00000857  00000+0 -35762-4 0  9998", "line2": "2 53259  53.2173 221.8176 0001183  77.5068 282.6057 15.08844428212234"}, {"name": "STARLINK-4062", "line1": "1 53261U 22086V   26142.59306469 -.00001482  00000+0 -75031-4 0  9998", "line2": "2 53261  53.2159 222.3564 0001053  88.3101 271.8011 15.08847389212220"}, {"name": "STARLINK-4085", "line1": "1 53262U 22086W   26142.60042561 -.00000318  00000+0 -18869-5 0  9995", "line2": "2 53262  53.2171 222.3245 0001233  71.9822 288.1304 15.08840836212225"}, {"name": "STARLINK-4130", "line1": "1 53263U 22086X   26142.65562882 -.00001500  00000+0 -76189-4 0  9996", "line2": "2 53263  53.2161 222.0775 0001074  87.2698 272.8417 15.08845318212230"}, {"name": "STARLINK-3950", "line1": "1 53264U 22086Y   26142.59674572  .00001100  00000+0  87171-4 0  9997", "line2": "2 53264  53.2171 222.3409 0001232  71.5231 288.5895 15.08834209212224"}, {"name": "STARLINK-4097", "line1": "1 53265U 22086Z   26142.58202231  .00000584  00000+0  54760-4 0  9999", "line2": "2 53265  53.2169 222.4063 0001154  86.2174 273.8950 15.08826757212229"}, {"name": "STARLINK-4058", "line1": "1 53266U 22086AA  26142.51946741 -.00000380  00000+0 -58043-5 0  9999", "line2": "2 53266  53.2172 222.6870 0001193  79.1094 281.0032 15.08836153212219"}, {"name": "STARLINK-4060", "line1": "1 53267U 22086AB  26142.64090938 -.00000713  00000+0 -26690-4 0  9994", "line2": "2 53267  53.2174 222.1422 0001270  80.9216 279.1920 15.08844212212233"}, {"name": "STARLINK-4109", "line1": "1 53268U 22086AC  26141.65098878 -.00000469  00000+0 -11360-4 0  9992", "line2": "2 53268  53.2178 226.5855 0000956  91.9165 268.1937 15.08838963212086"}, {"name": "STARLINK-4122", "line1": "1 53272U 22086AG  26142.63814647  .00000273  00000+0  35260-4 0  9992", "line2": "2 53272  53.2180 212.1525 0001161  80.8827 279.2297 15.08837833212368"}, {"name": "STARLINK-4051", "line1": "1 53273U 22086AH  26142.61975315 -.00000253  00000+0  21886-5 0  9990", "line2": "2 53273  53.2171 212.2353 0001352  85.7734 274.3413 15.08837451212353"}, {"name": "STARLINK-4050", "line1": "1 53274U 22086AJ  26142.23334979 -.00000661  00000+0 -23440-4 0  9995", "line2": "2 53274  53.2184 213.9712 0001289  86.5110 273.6029 15.08834784212307"}, {"name": "STARLINK-4179", "line1": "1 53275U 22086AK  26142.21862502 -.00000750  00000+0 -29056-4 0  9990", "line2": "2 53275  53.2195 214.0364 0000771  69.2425 290.8649 15.08840866212292"}, {"name": "STARLINK-4174", "line1": "1 53276U 22086AL  26142.62340764  .00009709  00000+0  62747-3 0  9991", "line2": "2 53276  53.2205 212.2184 0001124  59.9910 300.1194 15.08828983212356"}, {"name": "STARLINK-4178", "line1": "1 53277U 22086AM  26142.60872463  .00001334  00000+0  10191-3 0  9998", "line2": "2 53277  53.2174 212.3137 0001242  75.3512 284.7618 15.08834342212356"}, {"name": "STARLINK-4180", "line1": "1 53278U 22086AN  26142.47990049 -.00002583  00000+0 -14430-3 0  9994", "line2": "2 53278  53.2193 212.8607 0000536  72.7793 287.3258 15.08835108212330"}, {"name": "STARLINK-4169", "line1": "1 53280U 22086AQ  26142.33495971 -.00010207  00000+0 -62348-3 0  9999", "line2": "2 53280  53.2181 168.1892 0001400  70.6427 289.4716 15.08877169212954"}, {"name": "STARLINK-4164", "line1": "1 53282U 22086AS  26142.60502255 -.00000097  00000+0  12021-4 0  9994", "line2": "2 53282  53.2171 212.3031 0001182  82.5036 277.6091 15.08841001212352"}, {"name": "STARLINK-4175", "line1": "1 53283U 22086AT  26142.66022532  .00000381  00000+0  42015-4 0  9997", "line2": "2 53283  53.2166 212.0558 0001065  75.9418 284.1692 15.08840147212369"}, {"name": "STARLINK-4173", "line1": "1 53285U 22086AV  26142.45046590  .00000845  00000+0  71141-4 0  9993", "line2": "2 53285  53.2174 212.9972 0001043  90.8334 269.2777 15.08852658212322"}, {"name": "STARLINK-4165", "line1": "1 53286U 22086AW  26142.49458985 -.00000115  00000+0  10853-4 0  9997", "line2": "2 53286  53.2166 212.4885 0001196  83.8522 276.2607 15.08836648212334"}, {"name": "STARLINK-4107", "line1": "1 53287U 22086AX  26141.64822997 -.00000114  00000+0  10949-4 0  9997", "line2": "2 53287  53.2171 216.5968 0001316  87.5773 272.5370 15.08838965212207"}, {"name": "STARLINK-4162", "line1": "1 53288U 22086AY  26142.58662752  .00000719  00000+0  63270-4 0  9998", "line2": "2 53288  53.2175 212.3858 0001255  89.0725 271.0411 15.08835723212344"}, {"name": "STARLINK-4176", "line1": "1 53289U 22086AZ  26142.61838772 -.00000313  00000+0 -15706-5 0  9994", "line2": "2 53289  53.2180 207.3861 0001555  85.5342 274.5828 15.08836838212414"}, {"name": "STARLINK-4149", "line1": "1 53290U 22086BA  26142.57923910  .00002040  00000+0  14616-3 0  9994", "line2": "2 53290  53.2162 212.4212 0001197  85.3977 274.7152 15.08858212212341"}, {"name": "STARLINK-4166", "line1": "1 53291U 22086BB  26142.58521773  .00000143  00000+0  27093-4 0  9993", "line2": "2 53291  53.2186 207.1802 0001092  95.8864 264.2252 15.08838808212411"}, {"name": "STARLINK-4159", "line1": "1 53292U 22086BC  26142.45784935  .00000076  00000+0  22860-4 0  9993", "line2": "2 53292  53.2172 213.1458 0001284  86.4499 273.6640 15.08838524212324"}, {"name": "STARLINK-4148", "line1": "1 53293U 22086BD  26142.54340243 -.00000330  00000+0 -26721-5 0  9990", "line2": "2 53293  53.2168 202.5673 0000870  98.7788 261.3302 15.08829627212477"}, {"name": "STARLINK-4146", "line1": "1 53294U 22086BE  26142.42928457 -.00000391  00000+0 -64601-5 0  9993", "line2": "2 53294  53.2161 202.9257 0001430  80.6320 279.4834 15.08843587212503"}, {"name": "STARLINK-4522", "line1": "1 53388U 22097A   26142.44862435 -.00000631  00000+0 -21581-4 0  9990", "line2": "2 53388  53.2168 153.0056 0001203  80.6016 279.5112 15.08839045209989"}, {"name": "STARLINK-4523", "line1": "1 53389U 22097B   26142.44126459 -.00000508  00000+0 -13817-4 0  9996", "line2": "2 53389  53.2173 153.0360 0001280  71.6526 288.4605 15.08839899209809"}, {"name": "STARLINK-4517", "line1": "1 53390U 22097C   26142.31247647  .00000161  00000+0  28191-4 0  9991", "line2": "2 53390  53.2170 153.6150 0001207  80.1747 279.9381 15.08833290209939"}, {"name": "STARLINK-4521", "line1": "1 53391U 22097D   26142.43759687  .00001242  00000+0  96163-4 0  9992", "line2": "2 53391  53.2157 153.0528 0001262 103.0938 257.0195 15.08829094209809"}, {"name": "STARLINK-4535", "line1": "1 53392U 22097E   26142.29776262  .00000576  00000+0  54278-4 0  9995", "line2": "2 53392  53.2182 153.6808 0000994  76.6933 283.4170 15.08839546209782"}, {"name": "STARLINK-4530", "line1": "1 53393U 22097F   26142.30142510  .00000514  00000+0  50342-4 0  9991", "line2": "2 53393  53.2178 153.6627 0001119  73.4346 286.6769 15.08842411209784"}, {"name": "STARLINK-4544", "line1": "1 53394U 22097G   26142.37957896  .00000074  00000+0  22738-4 0  9999", "line2": "2 53394  53.2171 142.9232 0001091  74.3801 285.7312 15.08838073209947"}, {"name": "STARLINK-4534", "line1": "1 53395U 22097H   26142.29500721  .00001523  00000+0  11368-3 0  9998", "line2": "2 53395  53.2192 153.7042 0001164  76.8336 283.2786 15.08854603209621"}, {"name": "STARLINK-4524", "line1": "1 53396U 22097J   26142.41183064  .00000006  00000+0  18438-4 0  9991", "line2": "2 53396  53.2173 153.1696 0000933  77.9403 282.1693 15.08835351209646"}, {"name": "STARLINK-4515", "line1": "1 53397U 22097K   26142.55534785 -.00000004  00000+0  17818-4 0  9997", "line2": "2 53397  53.2185 152.5217 0001365  75.6362 284.4781 15.08839756209669"}, {"name": "STARLINK-4512", "line1": "1 53398U 22097L   26142.40446669  .00000745  00000+0  64899-4 0  9997", "line2": "2 53398  53.2158 153.2023 0001090  76.2245 283.8869 15.08837785209643"}, {"name": "STARLINK-4528", "line1": "1 53399U 22097M   26142.41550910  .00000410  00000+0  43822-4 0  9996", "line2": "2 53399  53.2171 153.1528 0001113  61.0512 299.0591 15.08837703209644"}, {"name": "STARLINK-4520", "line1": "1 53400U 22097N   26142.45966984 -.00000376  00000+0 -55706-5 0  9993", "line2": "2 53400  53.2158 152.9559 0000993  69.7282 290.3817 15.08839486209653"}, {"name": "STARLINK-4525", "line1": "1 53401U 22097P   26142.47438929 -.00000027  00000+0  16385-4 0  9990", "line2": "2 53401  53.2171 152.8895 0001212  80.6920 279.4209 15.08836755209656"}, {"name": "STARLINK-4499", "line1": "1 53402U 22097Q   26142.32350584 -.00000403  00000+0 -72335-5 0  9992", "line2": "2 53402  53.2168 153.5668 0001215  62.5055 297.6061 15.08839947209632"}, {"name": "STARLINK-4507", "line1": "1 53403U 22097R   26142.30242573 -.00001824  00000+0 -96513-4 0  9990", "line2": "2 53403  53.2171 154.0057 0000950  89.8961 270.2140 15.08844117209627"}, {"name": "STARLINK-4509", "line1": "1 53404U 22097S   26142.43945569  .00000016  00000+0  19090-4 0  9995", "line2": "2 53404  53.2172 142.9783 0001266  75.8212 284.2921 15.08836498209788"}]